#dP2023  2  3 18  0  0.00000000      96 __u+U ITR00 EXT  IAC
## 2247 496800.00000000   900.00000000 59978 0.7500000000000
+  119   C06C07C08C09C10C11C12C13C14C16C19C20C21C22C23C24C25
+        C26C27C28C29C30C32C33C34C35C36C37C38C39C40C41C42C43
+        C44C45C46E01E02E03E04E05E07E08E09E10E11E12E14E15E18
+        E19E21E24E25E26E27E30E31E33E34E36G01G02G03G04G05G06
+        G07G08G09G10G11G12G13G14G15G16G17G18G19G20G21G22G23
+        G24G25G26G27G28G29G30G31G32J02J03J04R01R02R03R04R05
+        R07R08R09R11R12R13R14R15R16R17R18R19R20R21R22R24R25
++        11 10 10 10 10  9  9  9  9 11  7  8  8  9  8  7  8
++         6  8  9  7  8  9 10  6  7  7  8 10 11  9 10  9  8
++         8  9  8  8  7  6  8  7  7  7  8  7  8  7  8  7  6
++         7  7  8  8  7  7  7  8  7  7  8  7  6  8  9  7  7
++         7  7  8  6  8  7  6  7  7  7  6  7  8  8  6  6  7
++         8  7  7  7  9  8  6  7  7  8 10  9 10  8  8  7  7
++        10 10  7  7  7  8  7  8  7  8  7  7  9  6  7  9  7
%c M  cc GPS ccc cccc cccc cccc cccc ccccc ccccc ccccc ccccc
%c cc cc ccc ccc cccc cccc cccc cccc ccccc ccccc ccccc ccccc
%f  0.0000000  0.000000000  0.00000000000  0.000000000000000
%f  0.0000000  0.000000000  0.00000000000  0.000000000000000
%i    0    0    0    0      0      0      0      0         0
%i    0    0    0    0      0      0      0      0         0
/* IAC                                ULTRA-RAPID PREDICTION
/* S/V CLOCKS ARE ALIGNED TO GNSS TIME                      
/* G:C1WC2W R:C1PC2P E:C1XC5X C:C2IC6I J:C1CC2S             
/* PCV:IGS20_2239 OL/AL:FES2004  NONE     YN ORB:CoN CLK:CoN
*  2023 02 03 22 45  0.00000000
PC06  -1556.994774  33490.647259  25730.144946   -189.778009
PC07 -14072.095434  26943.275475 -29221.375196    165.434558
PC08 -14975.504186  38610.034829   7366.653164    527.358661
PC09   4473.858294  37570.866281  19540.467597    530.997341
PC10  -7132.287535  27436.174546 -31012.418836     18.807369
PC11  -7723.673879  14185.514375 -22683.243245   -140.621414
PC12 -19418.731737  -2853.658663 -19795.791442    433.019710
PC13 -10259.884879  38959.864546  12128.756136    199.267897
PC14 -17899.990149  14536.255673  15775.266001    439.997402
PC16  -2349.788665  32498.280758  27114.071994     67.312504
PC19   8013.193029 -16276.207476 -21172.541315   -894.995239
PC20  23778.989797 -11153.260008  -9378.104884    739.431314
PC21 -26398.685400  -1136.529669  -8988.496831   -912.635556
PC22 -13170.249770 -12277.663799 -21324.373856   -651.285734
PC23   5488.359588  21479.758396 -16948.119831   -874.846735
PC24 -17221.442407  15515.459138  15497.208428   -456.037231
PC25  -7028.924957  26913.408858  -2091.784948     66.173106
PC26 -16254.461910  -2399.895241  22535.080648    -73.714923
PC27  21707.037367  10668.195971  13916.447949     91.469515
PC28  16894.242428  22117.578782  -2047.676773     66.435339
PC29  -1902.378727 -20953.745586  18325.613417     76.312254
PC30  14838.387421  -7062.096017  22552.453890      1.219271
PC32  26361.096438   1024.054246   9105.577561   -631.499799
PC33  -8035.911291  16365.460563  21137.654335   -875.382082
PC34 -13958.327328   8268.974119 -22711.935454     98.278337
PC35 -16921.933788 -21919.045547   3264.833518    686.528546
PC36   8114.412436 -26668.705895   1437.430429   -649.209255
PC37  15743.033296   4295.469007 -22633.347512   -829.780182
PC38 -18952.769210  37542.920584  -1470.364699     56.396916
PC39  -6904.804299  27705.583678  31121.167683     -1.681855
PC40 -20148.125031  20513.049770 -30924.826810    -14.202767
PC41  12556.465048  12576.937772  21569.205694   -570.197562
PC42 -24470.802605  10620.685100   8273.457116   -857.056558
PC43   1050.803165  20685.304743 -18720.963775      5.396625
PC44 -22152.889924  -9927.974247 -13741.270282      4.235806
PC45  -5652.061281 -21197.438841  17254.289321    -55.928155
PC46  16778.295468 -17167.940137 -14275.481393    -30.976132
PE01  25110.829227  -9871.655415 -12192.908888   -599.923268
PE02 -25123.804557  10205.441637  11829.724127     18.665238
PE03 -26438.905169    262.571148  13311.859573   -646.492093
PE04  11729.125730 -13386.731081 -23647.246660    -50.547811
PE05 -25929.223367 -13329.405061  -5107.040015    -98.790833
PE07  10185.038940  18947.148075  20335.139393    -20.229763
PE08 -11794.365394  13210.594173  23718.402292    -30.270953
PE09 -10075.367683 -18812.601836 -20514.710565   -823.505246
PE10    844.723464 -28169.251428   9053.032705   -509.834949
PE11  -6061.031826 -28926.229549  -1464.650204    739.500416
PE12   7166.283717 -23087.268721  17071.510115   -408.909746
PE14  19709.996029  15051.871920  -5305.336568    132.122551
PE15  -7250.718792  22871.908281 -17329.398205    689.710976
PE18 -29466.075360  -9207.950973  -6841.605918   -432.283670
PE19  27362.989684   1889.899902 -11134.385825  -3322.649808
PE21  17406.438891   6167.856334 -23142.223548   -510.097844
PE24   1733.561611 -20437.661955  21333.215187  -1094.533332
PE25 -17153.093284  -6462.538707  23237.779877   -598.621040
PE26  15291.615254  17408.582806  18430.881348      7.958837
PE27   -775.819874  20027.565562 -21780.216493   -503.689760
PE30 -18835.576962  21726.792759  -6993.258955  -1213.769773
PE31  18337.980419 -21965.723865   7600.230673   -515.082031
PE33  15708.054350  -3190.180012  24893.881759   -452.809061
PE34 -15662.611278   3419.849211 -24881.423991    -28.253532
PE36 -14964.944523 -18170.198529 -17929.965186     -7.134922
PG01  13408.999165  -7350.782012  21346.771443    216.603765
PG02 -11695.718347  12124.263748 -19964.979352   -623.187982
PG03  22885.265190 -12085.364035   5580.493799   -366.981930
PG04  20601.354852  -2875.835711 -16573.625150    -35.088550
PG05 -19778.636054    -80.466939 -17951.721669   -114.533275
PG06  -5591.353785 -25503.228427  -4525.790244    567.990471
PG07   7633.667375 -20889.720156 -13708.284963    247.475406
PG08  25367.646273   5540.186288   6439.300676   -106.783931
PG09  10844.346992 -11768.162863 -21280.906601   -224.747817
PG10  -3790.715688  18487.215001  18731.314302    -23.203129
PG11 -12102.556613 -17433.483555 -15980.168777    -94.908218
PG12 -23747.832896   9489.857706   6693.091877   -336.043176
PG13 -23005.510074 -13442.732257    890.754825    470.310760
PG14   6894.176981 -19293.241254  16838.460970    -35.312488
PG15 -25752.170826  -2641.344259   6098.073501     10.347000
PG16  18281.998628   4471.629088 -19220.941212   -521.563192
PG17  -2813.136209 -17089.752162  20544.623728    697.745892
PG18  -5686.279166  23227.311660 -11401.187346   -125.921839
PG19 -13794.380222 -18354.936046  13352.780878    272.940655
PG20 -12052.793398  -9814.160531 -21498.420742    452.926318
PG21  15967.326284   2348.218272  21794.080034    153.803677
PG22  16331.625216  17936.463040  11445.614422    419.739239
PG23 -14335.691659  19865.189668  10082.276312      4.723604
PG24 -15334.057980   3027.301680  21122.858630    -58.609871
PG25 -20364.762950  16756.537313  -1693.571221    417.060325
PG26   7663.350503  14067.445233 -21266.539626    241.149010
PG27  22937.800201  13224.927081  -4288.073067    110.916668
PG28   5562.582187  25851.790538  -2547.794138     -3.720038
PG29 -14268.111385   8307.382975 -20868.124519   -584.148008
PG30   -538.520054 -26258.031389  -2762.081837   -531.431967
PG31   6848.214583  24577.374072  -6632.224560   -208.238396
PG32   7038.103598  17482.806254  18958.438689   -385.133165
PJ02 -36092.662331  21714.222566   1975.780038     -0.788002
PJ03 -19831.365180  23518.703435 -24186.859659      0.078438
PJ04 -26373.311944  31611.017182  15842.395949    121.891444
PR01   9795.579148   9899.719921  21371.504044     22.402698
PR02  23983.686927   3750.840398   7990.216944    -23.331506
PR03  23266.272048  -4631.056237  -9409.656228     71.855469
PR04   9717.292824  -9956.266769 -21353.995523    174.431359
PR05  -9064.601550 -10058.259254 -21598.811351    107.176860
PR07 -22783.943479   5016.317415  10294.196439     49.219409
PR08  -9406.874026  10189.134553  21460.602479    -69.340612
PR09 -11694.962694  -1888.248482  22609.149045    102.158938
PR11 -11432.033845  22737.065082  -1820.969160     -0.463707
PR12    224.255494  17677.724418 -18360.679096     24.770034
PR13  10560.937190   3670.817390 -22948.583965    -31.639443
PR14  15704.139065 -14554.190438 -13849.944658     24.315806
PR15  11107.922865 -22771.611641   2973.841638     91.307449
PR16    -44.616586 -17842.166986  18218.615847     10.820759
PR17  10547.238936  -2729.248393  23074.748328    601.685737
PR18     94.215743 -17050.072699  18968.621222     65.030380
PR19  -9094.730872 -22990.102004   6279.462905   -220.628786
PR20 -15031.614305 -15131.149208 -13942.570965    -87.074433
PR21  -9634.583234   4231.108368 -23232.307620   -370.585973
PR22   -378.043994  17810.735576 -18235.127691     69.477265
PR24  15764.070338  14006.498205  14367.021608    144.250129
PR25 -11112.461524   1981.220775 -22867.502612     53.450485
EOF
